{
  "type": "FeatureCollection",
  "features": [
    {
      "type": "Feature",
      "properties": {
        "norad_id": 40230,
        "name": "COSMOS 2251 DEB",
        "group": "cosmos-2251-debris",
        "lat": 26.97323060531136,
        "lon": 10.576716964141953,
        "alt_km": 729.2309781333743,
        "timestamp": "2025-12-27T15:27:11.592829+00:00",
        "meta_object_name": "COSMOS 2251 DEB",
        "meta_object_id": "1993-036BVK",
        "meta_epoch": "2025-12-20T07:41:52.070784",
        "meta_mean_motion": 14.49354869,
        "meta_eccentricity": 0.00189754,
        "meta_inclination": 74.0435,
        "meta_ra_of_asc_node": 212.675,
        "meta_arg_of_pericenter": 270.0639,
        "meta_mean_anomaly": 207.3635,
        "meta_ephemeris_type": 0,
        "meta_classification_type": "U",
        "meta_norad_cat_id": 40230,
        "meta_element_set_no": 999,
        "meta_rev_at_epoch": 59081,
        "meta_bstar": 0.00041501757,
        "meta_mean_motion_dot": 1.562e-05,
        "meta_mean_motion_ddot": 0,
        "tle_line1": "1 40230U 93036BVK 25354.32074156  .00001562  00000+0  41502-3 0  9995",
        "tle_line2": "2 40230  74.0435 212.6750 0018975 270.0639 207.3635 14.49354869590816"
      },
      "geometry": {
        "type": "Point",
        "coordinates": [
          10.576716964141953,
          26.97323060531136
        ]
      }
    },
    {
      "type": "Feature",
      "properties": {
        "norad_id": 40233,
        "name": "COSMOS 2251 DEB",
        "group": "cosmos-2251-debris",
        "lat": 67.63526675495766,
        "lon": -149.8660905345777,
        "alt_km": 667.026075277362,
        "timestamp": "2025-12-27T15:27:11.592839+00:00",
        "meta_object_name": "COSMOS 2251 DEB",
        "meta_object_id": "1993-036BVN",
        "meta_epoch": "2025-12-25T05:21:19.677024",
        "meta_mean_motion": 14.58549928,
        "meta_eccentricity": 0.004418,
        "meta_inclination": 73.9403,
        "meta_ra_of_asc_node": 79.204,
        "meta_arg_of_pericenter": 151.4765,
        "meta_mean_anomaly": 208.8831,
        "meta_ephemeris_type": 0,
        "meta_classification_type": "U",
        "meta_norad_cat_id": 40233,
        "meta_element_set_no": 999,
        "meta_rev_at_epoch": 59319,
        "meta_bstar": 0.0011641,
        "meta_mean_motion_dot": 5.46e-05,
        "meta_mean_motion_ddot": 0,
        "tle_line1": "1 40233U 93036BVN 25359.22314441  .00005460  00000+0  11641-2 0  9997",
        "tle_line2": "2 40233  73.9403  79.2040 0044180 151.4765 208.8831 14.58549928593190"
      },
      "geometry": {
        "type": "Point",
        "coordinates": [
          -149.8660905345777,
          67.63526675495766
        ]
      }
    },
    {
      "type": "Feature",
      "properties": {
        "norad_id": 40236,
        "name": "COSMOS 2251 DEB",
        "group": "cosmos-2251-debris",
        "lat": -4.191628987287891,
        "lon": -58.500881202315924,
        "alt_km": 1573.639755744961,
        "timestamp": "2025-12-27T15:27:11.592849+00:00",
        "meta_object_name": "COSMOS 2251 DEB",
        "meta_object_id": "1993-036BVR",
        "meta_epoch": "2025-12-26T00:27:49.903776",
        "meta_mean_motion": 13.24674998,
        "meta_eccentricity": 0.0537395,
        "meta_inclination": 73.5332,
        "meta_ra_of_asc_node": 122.8174,
        "meta_arg_of_pericenter": 1.8954,
        "meta_mean_anomaly": 358.4003,
        "meta_ephemeris_type": 0,
        "meta_classification_type": "U",
        "meta_norad_cat_id": 40236,
        "meta_element_set_no": 999,
        "meta_rev_at_epoch": 53800,
        "meta_bstar": 0.0010277,
        "meta_mean_motion_dot": 9.41e-06,
        "meta_mean_motion_ddot": 0,
        "tle_line1": "1 40236U 93036BVR 25360.01932759  .00000941  00000+0  10277-2 0  9990",
        "tle_line2": "2 40236  73.5332 122.8174 0537395   1.8954 358.4003 13.24674998538006"
      },
      "geometry": {
        "type": "Point",
        "coordinates": [
          -58.500881202315924,
          -4.191628987287891
        ]
      }
    },
    {
      "type": "Feature",
      "properties": {
        "norad_id": 40238,
        "name": "COSMOS 2251 DEB",
        "group": "cosmos-2251-debris",
        "lat": -57.678076970170245,
        "lon": 13.722200826858426,
        "alt_km": 1016.727133538493,
        "timestamp": "2025-12-27T15:27:11.592859+00:00",
        "meta_object_name": "COSMOS 2251 DEB",
        "meta_object_id": "1993-036BVT",
        "meta_epoch": "2025-12-24T09:50:08.146464",
        "meta_mean_motion": 13.25148444,
        "meta_eccentricity": 0.05498783,
        "meta_inclination": 73.9883,
        "meta_ra_of_asc_node": 45.6762,
        "meta_arg_of_pericenter": 15.0985,
        "meta_mean_anomaly": 346.58,
        "meta_ephemeris_type": 0,
        "meta_classification_type": "U",
        "meta_norad_cat_id": 40238,
        "meta_element_set_no": 999,
        "meta_rev_at_epoch": 54191,
        "meta_bstar": 0.0017336803,
        "meta_mean_motion_dot": 1.683e-05,
        "meta_mean_motion_ddot": 0,
        "tle_line1": "1 40238U 93036BVT 25358.40981651  .00001683  00000+0  17337-2 0  9995",
        "tle_line2": "2 40238  73.9883  45.6762 0549878  15.0985 346.5800 13.25148444541918"
      },
      "geometry": {
        "type": "Point",
        "coordinates": [
          13.722200826858426,
          -57.678076970170245
        ]
      }
    },
    {
      "type": "Feature",
      "properties": {
        "norad_id": 40239,
        "name": "COSMOS 2251 DEB",
        "group": "cosmos-2251-debris",
        "lat": -64.59586706700577,
        "lon": 104.37424142931339,
        "alt_km": 708.5078411741288,
        "timestamp": "2025-12-27T15:27:11.592869+00:00",
        "meta_object_name": "COSMOS 2251 DEB",
        "meta_object_id": "1993-036BVU",
        "meta_epoch": "2025-12-23T23:20:18.364128",
        "meta_mean_motion": 14.62039549,
        "meta_eccentricity": 0.008546,
        "meta_inclination": 74.0319,
        "meta_ra_of_asc_node": 254.3246,
        "meta_arg_of_pericenter": 2.8488,
        "meta_mean_anomaly": 11.8068,
        "meta_ephemeris_type": 0,
        "meta_classification_type": "U",
        "meta_norad_cat_id": 40239,
        "meta_element_set_no": 999,
        "meta_rev_at_epoch": 59775,
        "meta_bstar": 0.00037675,
        "meta_mean_motion_dot": 1.96e-05,
        "meta_mean_motion_ddot": 0,
        "tle_line1": "1 40239U 93036BVU 25357.97243477  .00001960  00000+0  37675-3 0  9990",
        "tle_line2": "2 40239  74.0319 254.3246 0085460   2.8488  11.8068 14.62039549597753"
      },
      "geometry": {
        "type": "Point",
        "coordinates": [
          104.37424142931339,
          -64.59586706700577
        ]
      }
    },
    {
      "type": "Feature",
      "properties": {
        "norad_id": 40792,
        "name": "COSMOS 2251 DEB",
        "group": "cosmos-2251-debris",
        "lat": -4.205661872504734,
        "lon": 17.479910519478018,
        "alt_km": 677.0148952757299,
        "timestamp": "2025-12-27T15:27:11.592880+00:00",
        "meta_object_name": "COSMOS 2251 DEB",
        "meta_object_id": "1993-036BVV",
        "meta_epoch": "2025-12-26T10:19:56.254080",
        "meta_mean_motion": 14.6770507,
        "meta_eccentricity": 0.0014497,
        "meta_inclination": 74.0454,
        "meta_ra_of_asc_node": 21.0269,
        "meta_arg_of_pericenter": 120.8372,
        "meta_mean_anomaly": 306.5345,
        "meta_ephemeris_type": 0,
        "meta_classification_type": "U",
        "meta_norad_cat_id": 40792,
        "meta_element_set_no": 999,
        "meta_rev_at_epoch": 63385,
        "meta_bstar": 0.00091958,
        "meta_mean_motion_dot": 5.217e-05,
        "meta_mean_motion_ddot": 0,
        "tle_line1": "1 40792U 93036BVV 25360.43051220  .00005217  00000+0  91958-3 0  9995",
        "tle_line2": "2 40792  74.0454  21.0269 0014497 120.8372 306.5345 14.67705070633854"
      },
      "geometry": {
        "type": "Point",
        "coordinates": [
          17.479910519478018,
          -4.205661872504734
        ]
      }
    },
    {
      "type": "Feature",
      "properties": {
        "norad_id": 40794,
        "name": "COSMOS 2251 DEB",
        "group": "cosmos-2251-debris",
        "lat": -8.15680647893557,
        "lon": 91.77705204862423,
        "alt_km": 589.6607098012455,
        "timestamp": "2025-12-27T15:27:11.592890+00:00",
        "meta_object_name": "COSMOS 2251 DEB",
        "meta_object_id": "1993-036BVX",
        "meta_epoch": "2025-12-24T01:30:51.702624",
        "meta_mean_motion": 14.94031865,
        "meta_eccentricity": 0.00097276,
        "meta_inclination": 73.9771,
        "meta_ra_of_asc_node": 101.3724,
        "meta_arg_of_pericenter": 255.1473,
        "meta_mean_anomaly": 282.9356,
        "meta_ephemeris_type": 0,
        "meta_classification_type": "U",
        "meta_norad_cat_id": 40794,
        "meta_element_set_no": 999,
        "meta_rev_at_epoch": 62093,
        "meta_bstar": 0.0045652942,
        "meta_mean_motion_dot": 0.00049073,
        "meta_mean_motion_ddot": 0,
        "tle_line1": "1 40794U 93036BVX 25358.06309841  .00049073  00000+0  45653-2 0  9996",
        "tle_line2": "2 40794  73.9771 101.3724 0009727 255.1473 282.9356 14.94031865620936"
      },
      "geometry": {
        "type": "Point",
        "coordinates": [
          91.77705204862423,
          -8.15680647893557
        ]
      }
    }
  ]
}